[
    {
        "CCSDS_OMM_VERS": "3.0",
        "COMMENT": "GENERATED VIA SPACE-TRACK.ORG API",
        "CREATION_DATE": "2025-04-14T03:05:54",
        "ORIGINATOR": "18 SPCS",
        "OBJECT_NAME": "BEIDOU 3 M26",
        "OBJECT_ID": "2023-207B",
        "CENTER_NAME": "EARTH",
        "REF_FRAME": "TEME",
        "TIME_SYSTEM": "UTC",
        "MEAN_ELEMENT_THEORY": "SGP4",
        "EPOCH": "2025-04-12T23:54:56.128608",
        "MEAN_MOTION": "1.86231696",
        "ECCENTRICITY": "0.00053730",
        "INCLINATION": "55.3713",
        "RA_OF_ASC_NODE": "76.8454",
        "ARG_OF_PERICENTER": "288.7320",
        "MEAN_ANOMALY": "71.1850",
        "EPHEMERIS_TYPE": "0",
        "CLASSIFICATION_TYPE": "U",
        "NORAD_CAT_ID": "58655",
        "ELEMENT_SET_NO": "999",
        "REV_AT_EPOCH": "881",
        "BSTAR": "0.00000000000000",
        "MEAN_MOTION_DOT": "-0.00000019",
        "MEAN_MOTION_DDOT": "0.0000000000000",
        "SEMIMAJOR_AXIS": "27906.119",
        "PERIOD": "773.230",
        "APOAPSIS": "21542.978",
        "PERIAPSIS": "21512.990",
        "OBJECT_TYPE": "PAYLOAD",
        "RCS_SIZE": "LARGE",
        "COUNTRY_CODE": "PRC",
        "LAUNCH_DATE": "2023-12-26",
        "SITE": "XSC",
        "DECAY_DATE": null,
        "FILE": "4701263",
        "GP_ID": "285547447",
        "TLE_LINE0": "0 BEIDOU 3 M26",
        "TLE_LINE1": "1 58655U 23207B   25102.99648297 -.00000019  00000-0  00000-0 0  9998",
        "TLE_LINE2": "2 58655  55.3713  76.8454 0005373 288.7320  71.1850  1.86231696  8818"
    }
]